IRIDIUM 63              
1 25286U 98021B   25260.88916863  .00000431  00000+0  14007-3 0  9999
2 25286  86.3977  43.2119 0002077  86.8213 273.3222 14.36613258437159
IRIDIUM 69              
1 25319U 98026A   25260.89482692  .00000423  00000+0  12522-3 0  9991
2 25319  86.3943  56.2114 0004492  84.4053 275.7658 14.41046756436413
IRIDIUM 71              
1 25320U 98026B   25260.88977786  .00000363  00000+0  10637-3 0  9993
2 25320  86.3953  50.8909 0003903 115.4571 244.7033 14.41227687436949
IRIDIUM 73              
1 25344U 98032C   25260.83655542  .00000571  00000+0  13688-3 0  9994
2 25344  86.4470   7.4652 0002703  81.6653 278.4859 14.51818849444008
IRIDIUM 82              
1 25467U 98051A   25260.90591742  .00025566  00000+0  64536-3 0  9999
2 25467  86.3609  63.9687 0075808 304.0277  55.3790 15.36707970438175
